EUTELSAT 80A            
1 26369U 00028A   21156.86177990  .00000032  00000-0  00000-0 0  9993
2 26369   4.2101  78.6390 0000484  48.4535  88.7773  1.00001242 77019
TDRS 8                  
1 26388U 00034A   21156.74285475 -.00000234  00000-0  00000-0 0  9991
2 26388   9.7795  45.1331 0022750 342.3749 223.3915  1.00279371 76751
NAVSTAR 48 (USA 151)    
1 26407U 00040A   21156.54698951 -.00000077  00000-0  00000-0 0  9990
2 26407  55.7309 288.2127 0177128 282.5524  89.6433  2.00556902153094
CLUSTER II-FM7 (SAMBA)  
1 26410U 00041A   21158.43202312  .00000605  00000-0  00000-0 0  9993
2 26410 132.7848 344.4375 4896561 191.8141 359.9936  0.44228028 12155
CLUSTER II-FM6 (SALSA)  
1 26411U 00041B   21153.90529969  .00000576  00000-0  00000+0 0  9997
2 26411 133.5321 346.2445 6378484 196.5554   0.0237  0.44219664 23202
INTELSAT 9 (IS-9)       
1 26451U 00043A   21156.42085057 -.00000286  00000-0  00000-0 0  9998
2 26451   6.4248  63.7082 0003448  17.4014 274.4593  1.00272365 25711
CLUSTER II-FM5 (RUMBA)  
1 26463U 00045A   21156.16975715  .00000722  00000-0  00000+0 0  9996
2 26463 137.1734 346.2683 5943662 196.8654   0.0082  0.44220635 24489
CLUSTER II-FM8 (TANGO)  
1 26464U 00045B   21158.43151443  .00000605  00000-0  00000+0 0  9993
2 26464 132.7901 344.4310 4895978 191.8092 359.9934  0.44220678 59836
BRASILSAT B4            
1 26469U 00046A   21156.48938640 -.00000270  00000-0  00000-0 0  9994
2 26469   4.7852  75.9393 0002257   8.6970 277.5387  1.00271430 76535
ASTRA 2B                
1 26494U 00054A   21156.00101588 -.00000023  00000-0  00000-0 0  9998
2 26494   5.2956  71.5588 0014993  16.1960 180.5387  0.99589843 28453
NSS-11 (AAP-1)          
1 26554U 00059A   21156.89466786  .00000030  00000-0  00000-0 0  9998
2 26554   0.0171  19.4619 0003100  40.6146 332.5291  1.00272443 22875
USA 153                 
1 26575U 00065A   21156.88943697 -.00000324  00000-0  00000-0 0  9995
2 26575   8.4740  47.9331 0002306  25.8861 275.2377  1.00271123 14508
AMC-6 (GE-6)            
1 26580U 00067A   21156.76009521  .00000109  00000-0  00000-0 0  9999
2 26580   0.0353  68.2691 0003013  23.2478 297.5245  1.00274913 75495
INTELSAT 12 (IS-12)     
1 26590U 00068A   21156.87233545  .00000016  00000-0  00000-0 0  9995
2 26590   3.7686  83.1087 0008532   0.6488 189.0093  1.00272005 33288
INTELSAT 1R (IS-1R)     
1 26608U 00072A   21156.89074223 -.00000134  00000-0  00000-0 0  9990
2 26608   3.5710  83.5498 0000546 257.7589  30.9806  1.00271611 22891
ANIK F1                 
1 26624U 00076A   21156.83779003 -.00000057  00000-0  00000-0 0  9998
2 26624   0.4995  97.6041 0010926 348.5633   0.6891  1.00270784 24713
ASTRA 2D                
1 26638U 00081A   21156.87093966  .00000064  00000-0  00000-0 0  9997
2 26638   6.5109  62.7054 0001897  16.2519 186.3163  1.00274102 34485
AMC-8 (GE-8)            
1 26639U 00081B   21156.68908514  .00000092  00000-0  00000-0 0  9992
2 26639   1.5135  92.4797 0002920 351.4355 283.4941  1.00273657 74902
NAVSTAR 50 (USA 156)    
1 26690U 01004A   21156.69639103 -.00000032  00000-0  00000-0 0  9996
2 26690  53.6691 100.7630 0003483 309.1602 229.6714  1.91595371148332
ODIN                    
1 26702U 01007A   21156.93618159  .00000847  00000-0  58251-4 0  9996
2 26702  97.5369 173.6915 0012213 131.9626 228.2645 15.08480477109493
USA 157 (MILSTAR-2 2)   
1 26715U 01009A   21156.59868620  .00000012  00000-0  00000+0 0  9992
2 26715   9.6580  28.8816 0001410   9.9589 306.6353  1.00275815 13212
EUTELSAT 133 WEST A     
1 26719U 01011A   21156.68925962  .00000081  00000-0  00000-0 0  9999
2 26719   2.8016  86.1548 0005142 349.8055 293.6657  1.00274313 74114
BSAT-2A                 
1 26720U 01011B   21156.23167185 -.00000237  00000-0  00000-0 0  9991
2 26720   6.8300  61.3214 0003064  30.1004 199.7649  0.99179178 73741
INTELSAT 10 (IS-10)     
1 26766U 01019A   21156.59691361  .00000025  00000-0  00000+0 0  9999
2 26766   4.6995  76.4262 0005769   1.9606 199.0835  1.00613548 73506
INTELSAT 901 (IS-901)   
1 26824U 01024A   21156.85410314 -.00000197  00000-0  00000-0 0  9998
2 26824   0.0220  59.4519 0000880  41.5322  73.4861  1.00271022  4552
ASTRA 2C                
1 26853U 01025A   21156.71263885 -.00000162  00000-0  00000-0 0  9997
2 26853   3.6640  82.6466 0002759 342.7455  68.6872  1.00069035 26627
ICO F2                  
1 26857U 01026A   21148.99413038 -.00000039  00000-0  00000+0 0  9992
2 26857  44.9337 310.0040 0013594 323.7271  36.1958  3.92402404288845
USA 159 (DSP 21)        
1 26880U 01033A   21156.86415642 -.00000299  00000-0  00000-0 0  9993
2 26880  11.0894  28.1105 0000782 187.1274 300.8964  1.00263472 14542
INTELSAT 902 (IS-902)   
1 26900U 01039A   21156.84956687 -.00000277  00000-0  00000-0 0  9995
2 26900   1.4729  93.0462 0004099 359.7177  57.4764  1.00271242 72277
PCSAT (NO-44)           
1 26931U 01043C   21156.85229436 -.00000016  00000-0  25748-4 0  9991
2 26931  67.0514 310.3765 0006524 261.3714  98.6648 14.30620837 27534
PROBA-1                 
1 26958U 01049B   21156.84101376  .00000902  00000-0  82164-4 0  9995
2 26958  97.7695 113.4538 0073125 159.3406 201.0816 14.95708688 68172
BIRD 2                  
1 26959U 01049C   21156.90099283  .00001695  00000-0  46183-4 0  9997
2 26959  97.7959 219.6669 0006191 279.9412  80.1133 15.39056816395208
TIMED                   
1 26998U 01055B   21156.84866575  .00000112  00000-0  16186-4 0  9999
2 26998  74.0720 309.6304 0002028 284.8082  75.2874 14.88310392 56974
MAROC-TUBSAT            
1 27004U 01056D   21156.89712568 -.00000036  00000-0  94756-5 0  9992
2 27004  99.5689 293.4042 0019855 180.8071 294.5383 13.70146907974572
COSMOS 2385             
1 27056U 01058B   21156.84517385  .00000001  00000-0 -56576-4 0  9995
2 27056  82.5365 314.8234 0006842  60.7808 299.3965 12.60513612894455
COSMOS 2386             
1 27057U 01058C   21156.83536518  .00000010  00000-0 -15648-5 0  9990
2 27057  82.5420 310.3636 0000325  86.8484 273.2658 12.61560052895175
USA 164 (MILSTAR-2 3)   
1 27168U 02001A   21156.86335014  .00000100  00000-0  00000-0 0  9993
2 27168   9.1221  30.5247 0001791  53.4535 140.2827  1.00269990 14538
RHESSI                  
1 27370U 02004A   21156.72934866  .00002560  00000-0  77812-4 0  9997
2 27370  38.0313 171.8005 0011271 339.4988  20.5330 15.34975777 68593
ECHOSTAR 7              
1 27378U 02006A   21156.69231287  .00000004  00000-0  00000-0 0  9992
2 27378   0.0157 326.1169 0001981  65.3326 353.2967  1.00272425 32175
INTELSAT 904 (IS-904)   
1 27380U 02007A   21156.85366696 -.00000209  00000-0  00000-0 0  9995
2 27380   2.3102  89.8336 0003350 354.3579  88.1198  1.00271630 33342
TDRS 9                  
1 27389U 02011A   21156.42488486 -.00000287  00000-0  00000-0 0  9990
2 27389   8.2263  64.2291 0024480 294.9385 345.6716  1.00273857 72019
ASTRA 3A                
1 27400U 02015B   21156.25141765 -.00000202  00000-0  00000-0 0  9992
2 27400   6.6257  61.5288 0001465  24.7758 171.2465  1.00269820 70292
NSS-7                   
1 27414U 02019A   21156.64018116 -.00000155  00000-0  00000-0 0  9994
2 27414   5.0331  74.2469 0002607   3.0938  27.3897  1.00271227 70142
AQUA                    
1 27424U 02022A   21156.85576360  .00000077  00000-0  27047-4 0  9998
2 27424  98.2092  98.3458 0001351  37.9298  56.0536 14.57110840 15345
DIRECTV 5 (TEMPO 1)     
1 27426U 02023A   21156.61158591 -.00000052  00000-0  00000-0 0  9997
2 27426   0.1913  97.8593 0003237 341.8804 284.5630  1.00272714 69693
INTELSAT 905 (IS-905)   
1 27438U 02027A   21156.85462655 -.00000180  00000-0  00000-0 0  9991
2 27438   2.1315  90.6389 0002697 349.9525  97.0465  1.00270612 32942
GALAXY 3C (G-3C)        
1 27445U 02030A   21156.38035514 -.00000147  00000-0  00000+0 0  9993
2 27445   0.0162 312.7897 0001399  21.8305 321.2719  1.00268333 69524
EUTELSAT 5 WEST A       
1 27460U 02035A   21156.86703708 -.00000037  00000-0  00000-0 0  9994
2 27460   1.4043  93.3827 0005587 336.5140 131.7292  1.00271898 69198
COSMOS 2390             
1 27464U 02036A   21156.80703701  .00000026  00000-0  11731-3 0  9999
2 27464  82.4876  53.7695 0025027 320.5555  39.3698 12.44575737859258
COSMOS 2391             
1 27465U 02036B   21156.81569086  .00000018  00000-0  60114-4 0  9998
2 27465  82.4876  51.0515 0025762 316.6711  43.2346 12.44897125859462
METEOSAT-8 (MSG-1)      
1 27509U 02040B   21156.86779918  .00000137  00000-0  00000-0 0  9990
2 27509   7.3536  52.5439 0001200  33.5477 162.3307  1.00278832 68837
INTELSAT 906 (IS-906)   
1 27513U 02041A   21156.93174443  .00000019  00000-0  00000-0 0  9995
2 27513   1.1386  94.8514 0003429 350.0254 209.2717  1.00272101 68609
HISPASAT 30W-4          
1 27528U 02044A   21156.68751490  .00000122  00000-0  00000-0 0  9994
2 27528   1.9207  90.7041 0006128 346.2231 281.8893  1.00270019 24548
INTEGRAL                
1 27540U 02048A   21154.64037631  .00000369  00000-0  00000+0 0  9992
2 27540  63.8586  85.6146 8997725 299.1859   1.8265  0.37563968 19713
TDRS 10                 
1 27566U 02055A   21156.76091991  .00000090  00000-0  00000-0 0  9994
2 27566   7.5267  51.9528 0010988 333.3928 331.7975  1.00270677 67808
NSS-6                   
1 27603U 02057A   21156.82575146  .00000113  00000-0  00000-0 0  9990
2 27603   0.6749  95.8807 0004129 333.5204 312.7859  1.00272709 67612
LATINSAT B              
1 27606U 02058B   21156.92274746 -.00000038  00000-0  15654-4 0  9999
2 27606  64.5567  95.9573 0045404  42.0000 318.4568 14.72360115991270
SAUDISAT 1C (SO-50)     
1 27607U 02058C   21156.91596861  .00000020  00000-0  23257-4 0  9992
2 27607  64.5564  13.6274 0039253  25.0545 335.2451 14.75753610992844
LATINSAT A              
1 27612U 02058H   21156.67023794 -.00000047  00000-0  13062-4 0  9994
2 27612  64.5555 235.9152 0033474 337.0250  22.9355 14.79588610995433
